Service Name, Eircode,Lat,Lon, Address, Town, County, Country, Phone,Link,Other
Comharchumann Forbartha an Leith Triúigh Teo, V92 DK4C,52.25781192,-10.17183244, Halla Le Chéile Baile Uí Dhuibhne, Braoanainn, Kerry, Ireland,667138137,https://mealsonwheelsnetwork.ie/directory-meals_on_wheels/?filter_address%5Btext%5D=Current%20Map%20View&filter_address%5Bviewport%5D=51.32326959635218%2C-11.245623958125014%2C52.08916363292999%2C-7.729998958125015&filter_address%5Bzoom%5D=9&filter=1&filter_location_address%5Btext%5D=Current%20Map%20View&filter_location_address%5Bviewport%5D=51.32326959635218%2C-11.245623958125014%2C52.08916363292999%2C-7.729998958125015&filter_location_address%5Bzoom%5D=9&sort=post_published,
Lauragh Meals on Wheels, V93 HR98,51.7643606,-9.778710877,Lauragh Community Centre, Lauragh, Kerry, Ireland,087 3405863,https://mealsonwheelsnetwork.ie/directory-meals_on_wheels/?filter_address%5Btext%5D=Current%20Map%20View&filter_address%5Bviewport%5D=51.32326959635218%2C-11.245623958125014%2C52.08916363292999%2C-7.729998958125015&filter_address%5Bzoom%5D=9&filter=1&filter_location_address%5Btext%5D=Current%20Map%20View&filter_location_address%5Bviewport%5D=51.32326959635218%2C-11.245623958125014%2C52.08916363292999%2C-7.729998958125015&filter_location_address%5Bzoom%5D=9&sort=post_published,
Charleville Meals on Wheels, P56 D857,52.35685805,-8.685103799,Main Street , Charville, Cork, Ireland,087 7691605,https://mealsonwheelsnetwork.ie/directory-meals_on_wheels/?filter_address%5Btext%5D=Current%20Map%20View&filter_address%5Bviewport%5D=51.32326959635218%2C-11.245623958125014%2C52.08916363292999%2C-7.729998958125015&filter_address%5Bzoom%5D=9&filter=1&filter_location_address%5Btext%5D=Current%20Map%20View&filter_location_address%5Bviewport%5D=51.32326959635218%2C-11.245623958125014%2C52.08916363292999%2C-7.729998958125015&filter_location_address%5Bzoom%5D=9&sort=post_published,
Crosshaven Meals on Wheels, P43 EK76,51.8015799,-8.293230554,Crosshaven , Crosshaven, Cork, Ireland,087 3240445,https://mealsonwheelsnetwork.ie/directory-meals_on_wheels/?filter_address%5Btext%5D=Current%20Map%20View&filter_address%5Bviewport%5D=51.32326959635218%2C-11.245623958125014%2C52.08916363292999%2C-7.729998958125015&filter_address%5Bzoom%5D=9&filter=1&filter_location_address%5Btext%5D=Current%20Map%20View&filter_location_address%5Bviewport%5D=51.32326959635218%2C-11.245623958125014%2C52.08916363292999%2C-7.729998958125015&filter_location_address%5Bzoom%5D=9&sort=post_published,
Bishopstown Meals on Wheels, T12 XKF2,51.87869114,-8.512250508,Wilton Park House , Bishopstown, Cork, Ireland,021 4543757,https://mealsonwheelsnetwork.ie/directory-meals_on_wheels/?filter_address%5Btext%5D=Current%20Map%20View&filter_address%5Bviewport%5D=51.32326959635218%2C-11.245623958125014%2C52.08916363292999%2C-7.729998958125015&filter_address%5Bzoom%5D=9&filter=1&filter_location_address%5Btext%5D=Current%20Map%20View&filter_location_address%5Bviewport%5D=51.32326959635218%2C-11.245623958125014%2C52.08916363292999%2C-7.729998958125015&filter_location_address%5Bzoom%5D=9&sort=post_published,
The Caha Centre FRC, P75 EK72,51.68551553,-9.712926623,Droumlave , Adrigole, Cork, Ireland,087 9144427,https://mealsonwheelsnetwork.ie/directory-meals_on_wheels/?filter_address%5Btext%5D=Current%20Map%20View&filter_address%5Bviewport%5D=51.32326959635218%2C-11.245623958125014%2C52.08916363292999%2C-7.729998958125015&filter_address%5Bzoom%5D=9&filter=1&filter_location_address%5Btext%5D=Current%20Map%20View&filter_location_address%5Bviewport%5D=51.32326959635218%2C-11.245623958125014%2C52.08916363292999%2C-7.729998958125015&filter_location_address%5Bzoom%5D=9&sort=post_published,
Schull Community Care Meals on Wheels, P81 DP84,51.53593056,-9.565677785,,Schull , Cork, Ireland,086 3159719,https://mealsonwheelsnetwork.ie/directory-meals_on_wheels/?filter_address%5Btext%5D=Current%20Map%20View&filter_address%5Bviewport%5D=51.32326959635218%2C-11.245623958125014%2C52.08916363292999%2C-7.729998958125015&filter_address%5Bzoom%5D=9&filter=1&filter_location_address%5Btext%5D=Current%20Map%20View&filter_location_address%5Bviewport%5D=51.32326959635218%2C-11.245623958125014%2C52.08916363292999%2C-7.729998958125015&filter_location_address%5Bzoom%5D=9&sort=post_published,
Meals on Wheels Youghal, P36 YE98,51.95460083,-7.860743992,Tír na Nóg Blackwater Heights, Youghal, Cork, Ireland,087 3851764,https://mealsonwheelsnetwork.ie/directory-meals_on_wheels/?filter_address%5Btext%5D=Current%20Map%20View&filter_address%5Bviewport%5D=51.32326959635218%2C-11.245623958125014%2C52.08916363292999%2C-7.729998958125015&filter_address%5Bzoom%5D=9&filter=1&filter_location_address%5Btext%5D=Current%20Map%20View&filter_location_address%5Bviewport%5D=51.32326959635218%2C-11.245623958125014%2C52.08916363292999%2C-7.729998958125015&filter_location_address%5Bzoom%5D=9&sort=post_published,
Goleen District and Community Council, P81 VX95,51.49884386,-9.718201,Boulysallagh , Goleen, Cork, Ireland,087- 7164242,https://mealsonwheelsnetwork.ie/directory-meals_on_wheels/?filter_address%5Btext%5D=Current%20Map%20View&filter_address%5Bviewport%5D=51.32326959635218%2C-11.245623958125014%2C52.08916363292999%2C-7.729998958125015&filter_address%5Bzoom%5D=9&filter=1&filter_location_address%5Btext%5D=Current%20Map%20View&filter_location_address%5Bviewport%5D=51.32326959635218%2C-11.245623958125014%2C52.08916363292999%2C-7.729998958125015&filter_location_address%5Bzoom%5D=9&sort=post_published,
Bere Island Project Group, P75 XP38,51.64043863,-9.858334492,Ballynakilla , Bere Island, Cork, Ireland,027 75099,https://mealsonwheelsnetwork.ie/directory-meals_on_wheels/?filter_address%5Btext%5D=Current%20Map%20View&filter_address%5Bviewport%5D=51.32326959635218%2C-11.245623958125014%2C52.08916363292999%2C-7.729998958125015&filter_address%5Bzoom%5D=9&filter=1&filter_location_address%5Btext%5D=Current%20Map%20View&filter_location_address%5Bviewport%5D=51.32326959635218%2C-11.245623958125014%2C52.08916363292999%2C-7.729998958125015&filter_location_address%5Bzoom%5D=9&sort=post_published,
Millstreet Day Centre, P51 RY10,52.0586558,-9.066940484,Claragh Road , Millstreet, Cork, Ireland,029 70926,https://mealsonwheelsnetwork.ie/directory-meals_on_wheels/?filter_address%5Btext%5D=Current%20Map%20View&filter_address%5Bviewport%5D=51.32326959635218%2C-11.245623958125014%2C52.08916363292999%2C-7.729998958125015&filter_address%5Bzoom%5D=9&filter=1&filter_location_address%5Btext%5D=Current%20Map%20View&filter_location_address%5Bviewport%5D=51.32326959635218%2C-11.245623958125014%2C52.08916363292999%2C-7.729998958125015&filter_location_address%5Bzoom%5D=9&sort=post_published,
Cluain Dara Day Care Centre, P61 H242,52.13618129,-8.283888646,Cluain Dara Duntaheen, Fermoy, Cork, Ireland,025 33315,https://mealsonwheelsnetwork.ie/directory-meals_on_wheels/?filter_address%5Btext%5D=Current%20Map%20View&filter_address%5Bviewport%5D=51.32326959635218%2C-11.245623958125014%2C52.08916363292999%2C-7.729998958125015&filter_address%5Bzoom%5D=9&filter=1&filter_location_address%5Btext%5D=Current%20Map%20View&filter_location_address%5Bviewport%5D=51.32326959635218%2C-11.245623958125014%2C52.08916363292999%2C-7.729998958125015&filter_location_address%5Bzoom%5D=9&sort=post_published,
Conna Community Housing, P51 PP30,52.09241881,-8.110398123,Monty's Meadow , Conna, Cork, Ireland,058 59822,https://mealsonwheelsnetwork.ie/directory-meals_on_wheels/?filter_address%5Btext%5D=Current%20Map%20View&filter_address%5Bviewport%5D=51.32326959635218%2C-11.245623958125014%2C52.08916363292999%2C-7.729998958125015&filter_address%5Bzoom%5D=9&filter=1&filter_location_address%5Btext%5D=Current%20Map%20View&filter_location_address%5Bviewport%5D=51.32326959635218%2C-11.245623958125014%2C52.08916363292999%2C-7.729998958125015&filter_location_address%5Bzoom%5D=9&sort=post_published,
Ballyheigue Community Centre, V92 K227,52.38878661,-9.833239253,Sandyhills Road , Ballyheigue, Kerry, Ireland,066 7133837,https://mealsonwheelsnetwork.ie/directory-meals_on_wheels/?filter_address%5Btext%5D=Current%20Map%20View&filter_address%5Bviewport%5D=51.32326959635218%2C-11.245623958125014%2C52.08916363292999%2C-7.729998958125015&filter_address%5Bzoom%5D=9&filter=1&filter_location_address%5Btext%5D=Current%20Map%20View&filter_location_address%5Bviewport%5D=51.32326959635218%2C-11.245623958125014%2C52.08916363292999%2C-7.729998958125015&filter_location_address%5Bzoom%5D=9&sort=post_published,
Beara West Family Resource Centre, P75 YX38,51.6513227,-9.911784123,Knockanroe House Bank Place, Castletownbere, Cork, Ireland,027 70998,https://mealsonwheelsnetwork.ie/directory-meals_on_wheels/?filter_address%5Btext%5D=Current%20Map%20View&filter_address%5Bviewport%5D=51.32326959635218%2C-11.245623958125014%2C52.08916363292999%2C-7.729998958125015&filter_address%5Bzoom%5D=9&filter=1&filter_location_address%5Btext%5D=Current%20Map%20View&filter_location_address%5Bviewport%5D=51.32326959635218%2C-11.245623958125014%2C52.08916363292999%2C-7.729998958125015&filter_location_address%5Bzoom%5D=9&sort=post_published,
St. Michael's Centre, P72 XN61,51.74508783,-8.739532215,36 South Main Street , Bandon, Cork, Ireland,023 8841681,https://mealsonwheelsnetwork.ie/directory-meals_on_wheels/?filter_address%5Btext%5D=Current%20Map%20View&filter_address%5Bviewport%5D=51.32326959635218%2C-11.245623958125014%2C52.08916363292999%2C-7.729998958125015&filter_address%5Bzoom%5D=9&filter=1&filter_location_address%5Btext%5D=Current%20Map%20View&filter_location_address%5Bviewport%5D=51.32326959635218%2C-11.245623958125014%2C52.08916363292999%2C-7.729998958125015&filter_location_address%5Bzoom%5D=9&sort=post_published,
Skibbereen Meals on Wheels, P81 Y046,51.54876985,-9.2645507,Cara House Market Street , Skibbereen, Cork, Ireland,028 22269,https://mealsonwheelsnetwork.ie/directory-meals_on_wheels/?filter_address%5Btext%5D=Current%20Map%20View&filter_address%5Bviewport%5D=51.32326959635218%2C-11.245623958125014%2C52.08916363292999%2C-7.729998958125015&filter_address%5Bzoom%5D=9&filter=1&filter_location_address%5Btext%5D=Current%20Map%20View&filter_location_address%5Bviewport%5D=51.32326959635218%2C-11.245623958125014%2C52.08916363292999%2C-7.729998958125015&filter_location_address%5Bzoom%5D=9&sort=post_published,
Clonakilty Community Care Meals on Wheels, P85 V327,51.62158366,-8.888948423,Saint Fachtna's Community Care Centre Casement Park, Clonakilty, Cork, Ireland,023 8833107,https://mealsonwheelsnetwork.ie/directory-meals_on_wheels/?filter_address%5Btext%5D=Current%20Map%20View&filter_address%5Bviewport%5D=51.32326959635218%2C-11.245623958125014%2C52.08916363292999%2C-7.729998958125015&filter_address%5Bzoom%5D=9&filter=1&filter_location_address%5Btext%5D=Current%20Map%20View&filter_location_address%5Bviewport%5D=51.32326959635218%2C-11.245623958125014%2C52.08916363292999%2C-7.729998958125015&filter_location_address%5Bzoom%5D=9&sort=post_published,
Tralee Soup Kitchen, V92 EV50,52.27171875,-9.703931269,Ashe Street , Tralee, Kerry, Ireland,086 3188736,https://mealsonwheelsnetwork.ie/directory-meals_on_wheels/?filter_address%5Btext%5D=Current%20Map%20View&filter_address%5Bviewport%5D=51.32326959635218%2C-11.245623958125014%2C52.08916363292999%2C-7.729998958125015&filter_address%5Bzoom%5D=9&filter=1&filter_location_address%5Btext%5D=Current%20Map%20View&filter_location_address%5Bviewport%5D=51.32326959635218%2C-11.245623958125014%2C52.08916363292999%2C-7.729998958125015&filter_location_address%5Bzoom%5D=9&sort=post_published,
Westgate Foundation, P31 TF34,51.8887624,-8.602034792,West Village , Ballincollig, Cork, Ireland,021 4873648,https://mealsonwheelsnetwork.ie/directory-meals_on_wheels/?filter_address%5Btext%5D=Current%20Map%20View&filter_address%5Bviewport%5D=51.32326959635218%2C-11.245623958125014%2C52.08916363292999%2C-7.729998958125015&filter_address%5Bzoom%5D=9&filter=1&filter_location_address%5Btext%5D=Current%20Map%20View&filter_location_address%5Bviewport%5D=51.32326959635218%2C-11.245623958125014%2C52.08916363292999%2C-7.729998958125015&filter_location_address%5Bzoom%5D=9&sort=post_published,
Waterville Community Care, V23 P935,51.82865597,-10.17362029,,Waterville, Kerry, Ireland,066 9474366,https://mealsonwheelsnetwork.ie/directory-meals_on_wheels/?filter_address%5Btext%5D=Current%20Map%20View&filter_address%5Bviewport%5D=51.32326959635218%2C-11.245623958125014%2C52.08916363292999%2C-7.729998958125015&filter_address%5Bzoom%5D=9&filter=1&filter_location_address%5Btext%5D=Current%20Map%20View&filter_location_address%5Bviewport%5D=51.32326959635218%2C-11.245623958125014%2C52.08916363292999%2C-7.729998958125015&filter_location_address%5Bzoom%5D=9&sort=post_published,
Tralee Meals On Wheels, V92 X704,52.26883701,-9.709255438,Ozanam House 9 Day Place, Tralee, Kerry, Ireland,066 712 8021,https://mealsonwheelsnetwork.ie/directory-meals_on_wheels/?filter_address%5Btext%5D=Current%20Map%20View&filter_address%5Bviewport%5D=51.32326959635218%2C-11.245623958125014%2C52.08916363292999%2C-7.729998958125015&filter_address%5Bzoom%5D=9&filter=1&filter_location_address%5Btext%5D=Current%20Map%20View&filter_location_address%5Bviewport%5D=51.32326959635218%2C-11.245623958125014%2C52.08916363292999%2C-7.729998958125015&filter_location_address%5Bzoom%5D=9&sort=post_published,
Tralee Community Care & Action Ltd, V92 Y336,52.27295675,-9.714728715,Cumann Iosaef Balloonagh, Tralee, Kerry, Ireland,066 7120056,https://mealsonwheelsnetwork.ie/directory-meals_on_wheels/?filter_address%5Btext%5D=Current%20Map%20View&filter_address%5Bviewport%5D=51.32326959635218%2C-11.245623958125014%2C52.08916363292999%2C-7.729998958125015&filter_address%5Bzoom%5D=9&filter=1&filter_location_address%5Btext%5D=Current%20Map%20View&filter_location_address%5Bviewport%5D=51.32326959635218%2C-11.245623958125014%2C52.08916363292999%2C-7.729998958125015&filter_location_address%5Bzoom%5D=9&sort=post_published,
SVDP Listowel Day Centre, V31 YA37,52.44850982,-9.481698838,14 Meelish Close John B. Keane Road, Listowel, Kerry, Ireland,087 781 8053,https://mealsonwheelsnetwork.ie/directory-meals_on_wheels/?filter_address%5Btext%5D=Current%20Map%20View&filter_address%5Bviewport%5D=51.32326959635218%2C-11.245623958125014%2C52.08916363292999%2C-7.729998958125015&filter_address%5Bzoom%5D=9&filter=1&filter_location_address%5Btext%5D=Current%20Map%20View&filter_location_address%5Bviewport%5D=51.32326959635218%2C-11.245623958125014%2C52.08916363292999%2C-7.729998958125015&filter_location_address%5Bzoom%5D=9&sort=post_published,
Social Action Group Rathmore Clg, P51 DV7F,52.07750741,-9.249628669,Saint Joseph's Day Care Centre , Rathmore, Kerry, Ireland,064 7758588,https://mealsonwheelsnetwork.ie/directory-meals_on_wheels/?filter_address%5Btext%5D=Current%20Map%20View&filter_address%5Bviewport%5D=51.32326959635218%2C-11.245623958125014%2C52.08916363292999%2C-7.729998958125015&filter_address%5Bzoom%5D=9&filter=1&filter_location_address%5Btext%5D=Current%20Map%20View&filter_location_address%5Bviewport%5D=51.32326959635218%2C-11.245623958125014%2C52.08916363292999%2C-7.729998958125015&filter_location_address%5Bzoom%5D=9&sort=post_published,
Sneem Welfare Organisation Ltd, V93 TX07,51.83803451,-9.905261869,Sea View , Sneem, Kerry, Ireland,087 7923499,https://mealsonwheelsnetwork.ie/directory-meals_on_wheels/?filter_address%5Btext%5D=Current%20Map%20View&filter_address%5Bviewport%5D=51.32326959635218%2C-11.245623958125014%2C52.08916363292999%2C-7.729998958125015&filter_address%5Bzoom%5D=9&filter=1&filter_location_address%5Btext%5D=Current%20Map%20View&filter_location_address%5Bviewport%5D=51.32326959635218%2C-11.245623958125014%2C52.08916363292999%2C-7.729998958125015&filter_location_address%5Bzoom%5D=9&sort=post_published,
Rockmount Care Centre, V93 XY75,51.90319764,-9.445744718,Doctor's Surgery  Rockmount Gortnaboul, Kilgarvan, Kerry, Ireland,064 6685952,https://mealsonwheelsnetwork.ie/directory-meals_on_wheels/?filter_address%5Btext%5D=Current%20Map%20View&filter_address%5Bviewport%5D=51.32326959635218%2C-11.245623958125014%2C52.08916363292999%2C-7.729998958125015&filter_address%5Bzoom%5D=9&filter=1&filter_location_address%5Btext%5D=Current%20Map%20View&filter_location_address%5Bviewport%5D=51.32326959635218%2C-11.245623958125014%2C52.08916363292999%2C-7.729998958125015&filter_location_address%5Bzoom%5D=9&sort=post_published,
Portmagee Social Services, V23 HY51,51.88610403,-10.36331278,Portmagee Community Centre , Portmagee, Kerry, Ireland,066- 9477200,https://mealsonwheelsnetwork.ie/directory-meals_on_wheels/?filter_address%5Btext%5D=Current%20Map%20View&filter_address%5Bviewport%5D=51.32326959635218%2C-11.245623958125014%2C52.08916363292999%2C-7.729998958125015&filter_address%5Bzoom%5D=9&filter=1&filter_location_address%5Btext%5D=Current%20Map%20View&filter_location_address%5Bviewport%5D=51.32326959635218%2C-11.245623958125014%2C52.08916363292999%2C-7.729998958125015&filter_location_address%5Bzoom%5D=9&sort=post_published,
P.A.C.E. (Passage Association For The Care Of T..., T12 X4AX,51.87274834,-8.336508169,Town Hall Main Street, Passage West, Cork, Ireland,021 4863272,https://mealsonwheelsnetwork.ie/directory-meals_on_wheels/?filter_address%5Btext%5D=Current%20Map%20View&filter_address%5Bviewport%5D=51.32326959635218%2C-11.245623958125014%2C52.08916363292999%2C-7.729998958125015&filter_address%5Bzoom%5D=9&filter=1&filter_location_address%5Btext%5D=Current%20Map%20View&filter_location_address%5Bviewport%5D=51.32326959635218%2C-11.245623958125014%2C52.08916363292999%2C-7.729998958125015&filter_location_address%5Bzoom%5D=9&sort=post_published,
Middleton Meals On Wheels, P25 H343,51.91176576,-8.168914954,Parish Hall Youghal Road, Middleton, Cork, Ireland,021 4633260,https://mealsonwheelsnetwork.ie/directory-meals_on_wheels/?filter_address%5Btext%5D=Current%20Map%20View&filter_address%5Bviewport%5D=51.32326959635218%2C-11.245623958125014%2C52.08916363292999%2C-7.729998958125015&filter_address%5Bzoom%5D=9&filter=1&filter_location_address%5Btext%5D=Current%20Map%20View&filter_location_address%5Bviewport%5D=51.32326959635218%2C-11.245623958125014%2C52.08916363292999%2C-7.729998958125015&filter_location_address%5Bzoom%5D=9&sort=post_published,
Middle Parish Meals On Wheels, T12 P302,51.89962516,-8.480670692,1 Peter's Street , Cork, Cork, Ireland,021 427 3934,https://mealsonwheelsnetwork.ie/directory-meals_on_wheels/?filter_address%5Btext%5D=Current%20Map%20View&filter_address%5Bviewport%5D=51.32326959635218%2C-11.245623958125014%2C52.08916363292999%2C-7.729998958125015&filter_address%5Bzoom%5D=9&filter=1&filter_location_address%5Btext%5D=Current%20Map%20View&filter_location_address%5Bviewport%5D=51.32326959635218%2C-11.245623958125014%2C52.08916363292999%2C-7.729998958125015&filter_location_address%5Bzoom%5D=9&sort=post_published,
Mallow Social Service Council, P51P2FF,52.13935848,-8.642419369,The New Road , Mallow, Cork, Ireland,877546547,https://mealsonwheelsnetwork.ie/directory-meals_on_wheels/listing/mallow-social-service-council/,
Listry Communtiy Council, V93 PX08,51.89729076,-8.416774669,Listry Community Council , Faha, Kerry, Ireland,087 2563883,https://mealsonwheelsnetwork.ie/directory-meals_on_wheels/?filter_address%5Btext%5D=Current%20Map%20View&filter_address%5Bviewport%5D=51.32326959635218%2C-11.245623958125014%2C52.08916363292999%2C-7.729998958125015&filter_address%5Bzoom%5D=9&filter=1&filter_location_address%5Btext%5D=Current%20Map%20View&filter_location_address%5Bviewport%5D=51.32326959635218%2C-11.245623958125014%2C52.08916363292999%2C-7.729998958125015&filter_location_address%5Bzoom%5D=9&sort=post_published,
Knocknagoshel Meals On Wheels, V92 WV70,52.33129282,-9.384824423,Knocknagoshel,, Kerry, Ireland,087 1269270,https://mealsonwheelsnetwork.ie/directory-meals_on_wheels/?filter_address%5Btext%5D=Current%20Map%20View&filter_address%5Bviewport%5D=51.32326959635218%2C-11.245623958125014%2C52.08916363292999%2C-7.729998958125015&filter_address%5Bzoom%5D=9&filter=1&filter_location_address%5Btext%5D=Current%20Map%20View&filter_location_address%5Bviewport%5D=51.32326959635218%2C-11.245623958125014%2C52.08916363292999%2C-7.729998958125015&filter_location_address%5Bzoom%5D=9&sort=post_published,
Knockanure Community Centre, V31 K778,52.46345044,-9.369618792,Knockanure , Moyvane, Kerry, Ireland,068 49799,https://mealsonwheelsnetwork.ie/directory-meals_on_wheels/?filter_address%5Btext%5D=Current%20Map%20View&filter_address%5Bviewport%5D=51.32326959635218%2C-11.245623958125014%2C52.08916363292999%2C-7.729998958125015&filter_address%5Bzoom%5D=9&filter=1&filter_location_address%5Btext%5D=Current%20Map%20View&filter_location_address%5Bviewport%5D=51.32326959635218%2C-11.245623958125014%2C52.08916363292999%2C-7.729998958125015&filter_location_address%5Bzoom%5D=9&sort=post_published,
Killarney Community Services, V93 EVP2,52.06494473,-9.516575369,Holy Cross Day Care Centre Rock Road, Killarney, Kerry, Ireland,064 6635005,https://mealsonwheelsnetwork.ie/directory-meals_on_wheels/?filter_address%5Btext%5D=Current%20Map%20View&filter_address%5Bviewport%5D=51.32326959635218%2C-11.245623958125014%2C52.08916363292999%2C-7.729998958125015&filter_address%5Bzoom%5D=9&filter=1&filter_location_address%5Btext%5D=Current%20Map%20View&filter_location_address%5Bviewport%5D=51.32326959635218%2C-11.245623958125014%2C52.08916363292999%2C-7.729998958125015&filter_location_address%5Bzoom%5D=9&sort=post_published,
Kenmare Community Care Clg,V93 D9HE,51.88545414,-9.581221518,Taobh Linn Social Centre  Taobh Linn Railway Road, Kenmare, Kerry, Ireland,064 6648616,https://mealsonwheelsnetwork.ie/directory-meals_on_wheels/?filter_address%5Btext%5D=Current%20Map%20View&filter_address%5Bviewport%5D=51.32326959635218%2C-11.245623958125014%2C52.08916363292999%2C-7.729998958125015&filter_address%5Bzoom%5D=9&filter=1&filter_location_address%5Btext%5D=Current%20Map%20View&filter_location_address%5Bviewport%5D=51.32326959635218%2C-11.245623958125014%2C52.08916363292999%2C-7.729998958125015&filter_location_address%5Bzoom%5D=9&sort=post_published,
Glounthaune Meals On Wheels, T45 TD73,51.90973264,-8.363014838,28 Tower Hill Kilcoolishal, Glanmire, Cork, Ireland,021 4353557,https://mealsonwheelsnetwork.ie/directory-meals_on_wheels/?filter_address%5Btext%5D=Current%20Map%20View&filter_address%5Bviewport%5D=51.32326959635218%2C-11.245623958125014%2C52.08916363292999%2C-7.729998958125015&filter_address%5Bzoom%5D=9&filter=1&filter_location_address%5Btext%5D=Current%20Map%20View&filter_location_address%5Bviewport%5D=51.32326959635218%2C-11.245623958125014%2C52.08916363292999%2C-7.729998958125015&filter_location_address%5Bzoom%5D=9&sort=post_published,
Glencar Community Care, V93 R963,52.01233434,-9.853073861,Shanacashel Community Centre Shanacashel, Glencar, Kerry, Ireland,087 9314668,https://mealsonwheelsnetwork.ie/directory-meals_on_wheels/?filter_address%5Btext%5D=Current%20Map%20View&filter_address%5Bviewport%5D=51.32326959635218%2C-11.245623958125014%2C52.08916363292999%2C-7.729998958125015&filter_address%5Bzoom%5D=9&filter=1&filter_location_address%5Btext%5D=Current%20Map%20View&filter_location_address%5Bviewport%5D=51.32326959635218%2C-11.245623958125014%2C52.08916363292999%2C-7.729998958125015&filter_location_address%5Bzoom%5D=9&sort=post_published,
Gairdin Mhuire Day Care Centre, V92 HK79,52.14235911,-10.2706288,Sraid An Doirin , Daingean Ui Chuis, Kerry, Ireland,066 9151300,https://mealsonwheelsnetwork.ie/directory-meals_on_wheels/?filter_address%5Btext%5D=Current%20Map%20View&filter_address%5Bviewport%5D=51.32326959635218%2C-11.245623958125014%2C52.08916363292999%2C-7.729998958125015&filter_address%5Bzoom%5D=9&filter=1&filter_location_address%5Btext%5D=Current%20Map%20View&filter_location_address%5Bviewport%5D=51.32326959635218%2C-11.245623958125014%2C52.08916363292999%2C-7.729998958125015&filter_location_address%5Bzoom%5D=9&sort=post_published,
Fermoy Community Resource Centre, P61 T267,52.13834112,-8.277445107,42 Mccurtain Street , Fermoy, Cork, Ireland,025 32962,https://mealsonwheelsnetwork.ie/directory-meals_on_wheels/?filter_address%5Btext%5D=Current%20Map%20View&filter_address%5Bviewport%5D=51.32326959635218%2C-11.245623958125014%2C52.08916363292999%2C-7.729998958125015&filter_address%5Bzoom%5D=9&filter=1&filter_location_address%5Btext%5D=Current%20Map%20View&filter_location_address%5Bviewport%5D=51.32326959635218%2C-11.245623958125014%2C52.08916363292999%2C-7.729998958125015&filter_location_address%5Bzoom%5D=9&sort=post_published,
Dunmanway Family Resource Centre, P47 DP99,51.71792993,-9.116656938,Tonafora Bantry Road, Dunmanway, Cork, Ireland,028 8868110,https://mealsonwheelsnetwork.ie/directory-meals_on_wheels/?filter_address%5Btext%5D=Current%20Map%20View&filter_address%5Bviewport%5D=51.32326959635218%2C-11.245623958125014%2C52.08916363292999%2C-7.729998958125015&filter_address%5Bzoom%5D=9&filter=1&filter_location_address%5Btext%5D=Current%20Map%20View&filter_location_address%5Bviewport%5D=51.32326959635218%2C-11.245623958125014%2C52.08916363292999%2C-7.729998958125015&filter_location_address%5Bzoom%5D=9&sort=post_published,
Duhallow Community Food Services, P51 C5YF,52.21039966,-8.994400215,James O'Keeffe Institute Demesne, Newmarket, Cork, Ireland,029 76375,https://mealsonwheelsnetwork.ie/directory-meals_on_wheels/?filter_address%5Btext%5D=Current%20Map%20View&filter_address%5Bviewport%5D=51.32326959635218%2C-11.245623958125014%2C52.08916363292999%2C-7.729998958125015&filter_address%5Bzoom%5D=9&filter=1&filter_location_address%5Btext%5D=Current%20Map%20View&filter_location_address%5Bviewport%5D=51.32326959635218%2C-11.245623958125014%2C52.08916363292999%2C-7.729998958125015&filter_location_address%5Bzoom%5D=9&sort=post_published,
Duagh Family & Community Resource Centre Ltd, V31 FH67,52.41605136,-9.391048377,Duagh Village , Listowel, Kerry, Ireland,087 6866822,https://mealsonwheelsnetwork.ie/directory-meals_on_wheels/?filter_address%5Btext%5D=Current%20Map%20View&filter_address%5Bviewport%5D=51.32326959635218%2C-11.245623958125014%2C52.08916363292999%2C-7.729998958125015&filter_address%5Bzoom%5D=9&filter=1&filter_location_address%5Btext%5D=Current%20Map%20View&filter_location_address%5Bviewport%5D=51.32326959635218%2C-11.245623958125014%2C52.08916363292999%2C-7.729998958125015&filter_location_address%5Bzoom%5D=9&sort=post_published,
Castlemaine Community Centre,V93 R273,52.17153122,-9.700245838,Tralee Road , Castlemaine, Kerry, Ireland,066 9767833,https://mealsonwheelsnetwork.ie/directory-meals_on_wheels/?filter_address%5Btext%5D=Current%20Map%20View&filter_address%5Bviewport%5D=51.32326959635218%2C-11.245623958125014%2C52.08916363292999%2C-7.729998958125015&filter_address%5Bzoom%5D=9&filter=1&filter_location_address%5Btext%5D=Current%20Map%20View&filter_location_address%5Bviewport%5D=51.32326959635218%2C-11.245623958125014%2C52.08916363292999%2C-7.729998958125015&filter_location_address%5Bzoom%5D=9&sort=post_published,
Caherdaniel Community Care, V93 KR70,51.76947552,-10.10004309,Caherdamiel Community Hall , Canherdaniel, Kerry, Ireland,087 9206667,https://mealsonwheelsnetwork.ie/directory-meals_on_wheels/?filter_address%5Btext%5D=Current%20Map%20View&filter_address%5Bviewport%5D=51.32326959635218%2C-11.245623958125014%2C52.08916363292999%2C-7.729998958125015&filter_address%5Bzoom%5D=9&filter=1&filter_location_address%5Btext%5D=Current%20Map%20View&filter_location_address%5Bviewport%5D=51.32326959635218%2C-11.245623958125014%2C52.08916363292999%2C-7.729998958125015&filter_location_address%5Bzoom%5D=9&sort=post_published,
Beaufort Community Care Group, V93 F2NY,52.06938849,-9.640367323,Beaufort,, Kerry, Ireland,064 6644859,https://mealsonwheelsnetwork.ie/directory-meals_on_wheels/?filter_address%5Btext%5D=Current%20Map%20View&filter_address%5Bviewport%5D=51.32326959635218%2C-11.245623958125014%2C52.08916363292999%2C-7.729998958125015&filter_address%5Bzoom%5D=9&filter=1&filter_location_address%5Btext%5D=Current%20Map%20View&filter_location_address%5Bviewport%5D=51.32326959635218%2C-11.245623958125014%2C52.08916363292999%2C-7.729998958125015&filter_location_address%5Bzoom%5D=9&sort=post_published,
Castleisland St Vincent De Paul, V92 TD5F,52.23033518,-9.462796615,33 Church Street , Castleisland, Kerry, Ireland,066 7142234,https://mealsonwheelsnetwork.ie/directory-meals_on_wheels/?filter_address%5Btext%5D=Current%20Map%20View&filter_address%5Bviewport%5D=51.32326959635218%2C-11.245623958125014%2C52.08916363292999%2C-7.729998958125015&filter_address%5Bzoom%5D=9&filter=1&filter_location_address%5Btext%5D=Current%20Map%20View&filter_location_address%5Bviewport%5D=51.32326959635218%2C-11.245623958125014%2C52.08916363292999%2C-7.729998958125015&filter_location_address%5Bzoom%5D=9&sort=post_published,
Baile Mhuire Ltd, V92 TC59,52.27504876,-9.713838938,Bhaile Mhuire Centre Balloonagh, Tralee, Kerry, Ireland,066 7123373,https://mealsonwheelsnetwork.ie/directory-meals_on_wheels/?filter_address%5Btext%5D=Current%20Map%20View&filter_address%5Bviewport%5D=51.32326959635218%2C-11.245623958125014%2C52.08916363292999%2C-7.729998958125015&filter_address%5Bzoom%5D=9&filter=1&filter_location_address%5Btext%5D=Current%20Map%20View&filter_location_address%5Bviewport%5D=51.32326959635218%2C-11.245623958125014%2C52.08916363292999%2C-7.729998958125015&filter_location_address%5Bzoom%5D=9&sort=post_published,
Castleisland Day Care Centre, V92 K138,52.23064773,-9.460728084,Chapel Lane , Castleisland, Kerry, Ireland,066 7143865,https://mealsonwheelsnetwork.ie/directory-meals_on_wheels/?filter_address%5Btext%5D=Current%20Map%20View&filter_address%5Bviewport%5D=51.32326959635218%2C-11.245623958125014%2C52.08916363292999%2C-7.729998958125015&filter_address%5Bzoom%5D=9&filter=1&filter_location_address%5Btext%5D=Current%20Map%20View&filter_location_address%5Bviewport%5D=51.32326959635218%2C-11.245623958125014%2C52.08916363292999%2C-7.729998958125015&filter_location_address%5Bzoom%5D=9&sort=post_published,
Buds Family & Community Resource Centre Ballyduff, V92 A2VC,52.45165103,-9.663566553,Benmore Ballyduff, Tralee, Kerry, Ireland,066 7148883,https://mealsonwheelsnetwork.ie/directory-meals_on_wheels/?filter_address%5Btext%5D=Current%20Map%20View&filter_address%5Bviewport%5D=51.32326959635218%2C-11.245623958125014%2C52.08916363292999%2C-7.729998958125015&filter_address%5Bzoom%5D=9&filter=1&filter_location_address%5Btext%5D=Current%20Map%20View&filter_location_address%5Bviewport%5D=51.32326959635218%2C-11.245623958125014%2C52.08916363292999%2C-7.729998958125015&filter_location_address%5Bzoom%5D=9&sort=post_published,
Ballybunion Community Centre, V31 TV25,52.51097322,-9.673495653,Lartigue Rd , Ballybunion, Kerry, Ireland,068 27799,https://mealsonwheelsnetwork.ie/directory-meals_on_wheels/?filter_address%5Btext%5D=Current%20Map%20View&filter_address%5Bviewport%5D=51.32326959635218%2C-11.245623958125014%2C52.08916363292999%2C-7.729998958125015&filter_address%5Bzoom%5D=9&filter=1&filter_location_address%5Btext%5D=Current%20Map%20View&filter_location_address%5Bviewport%5D=51.32326959635218%2C-11.245623958125014%2C52.08916363292999%2C-7.729998958125015&filter_location_address%5Bzoom%5D=9&sort=post_published,
Ionad Lae na Dromoda / Dromid Day Centre, V23 RK10,51.90690173,-10.06148761,An Cillin Liath , Maistir Gaoithe, Kerry, Ireland,066 9474782,https://mealsonwheelsnetwork.ie/directory-meals_on_wheels/?filter_address%5Btext%5D=Current%20Map%20View&filter_address%5Bviewport%5D=51.32326959635218%2C-11.245623958125014%2C52.08916363292999%2C-7.729998958125015&filter_address%5Bzoom%5D=9&filter=1&filter_location_address%5Btext%5D=Current%20Map%20View&filter_location_address%5Bviewport%5D=51.32326959635218%2C-11.245623958125014%2C52.08916363292999%2C-7.729998958125015&filter_location_address%5Bzoom%5D=9&sort=post_published,
Caherciveen Social Services, V23 R726,51.94667372,-10.23161259,Caherciveen Social Services Centre  The Old Barracks The Avenue, Caherciveen, Kerry, Ireland,066 9472779,https://mealsonwheelsnetwork.ie/directory-meals_on_wheels/?filter_address%5Btext%5D=Current%20Map%20View&filter_address%5Bviewport%5D=51.32326959635218%2C-11.245623958125014%2C52.08916363292999%2C-7.729998958125015&filter_address%5Bzoom%5D=9&filter=1&filter_location_address%5Btext%5D=Current%20Map%20View&filter_location_address%5Bviewport%5D=51.32326959635218%2C-11.245623958125014%2C52.08916363292999%2C-7.729998958125015&filter_location_address%5Bzoom%5D=9&sort=post_published,
Comhlacht Forbartha An Gleanna, V23 F293,51.85008596,-10.3352487,An Gleann Ionad Lae  Rath Ciarain An Timleach Mor, Cathair Saidhbhin, Kerry, Ireland,066 9479366,https://mealsonwheelsnetwork.ie/directory-meals_on_wheels/?filter_address%5Btext%5D=Current%20Map%20View&filter_address%5Bviewport%5D=51.32326959635218%2C-11.245623958125014%2C52.08916363292999%2C-7.729998958125015&filter_address%5Bzoom%5D=9&filter=1&filter_location_address%5Btext%5D=Current%20Map%20View&filter_location_address%5Bviewport%5D=51.32326959635218%2C-11.245623958125014%2C52.08916363292999%2C-7.729998958125015&filter_location_address%5Bzoom%5D=9&sort=post_published,
Coiste Forbartha na Sceilge Ballinskelligs Comm..., V23 DT28,51.83412477,-10.26407848,An Halla Pobail , Baile N Sceilg, Kerry, Ireland,066 947 9111,https://mealsonwheelsnetwork.ie/directory-meals_on_wheels/?filter_address%5Btext%5D=Current%20Map%20View&filter_address%5Bviewport%5D=51.32326959635218%2C-11.245623958125014%2C52.08916363292999%2C-7.729998958125015&filter_address%5Bzoom%5D=9&filter=1&filter_location_address%5Btext%5D=Current%20Map%20View&filter_location_address%5Bviewport%5D=51.32326959635218%2C-11.245623958125014%2C52.08916363292999%2C-7.729998958125015&filter_location_address%5Bzoom%5D=9&sort=post_published,
Ballyphehane Community Centre,T12 WC6V,51.88514367,-8.474929084,Tory Top Road , Ballyphehane, Cork, Ireland,021 4965339,https://mealsonwheelsnetwork.ie/directory-meals_on_wheels/?filter_address%5Btext%5D=Current%20Map%20View&filter_address%5Bviewport%5D=51.32326959635218%2C-11.245623958125014%2C52.08916363292999%2C-7.729998958125015&filter_address%5Bzoom%5D=9&filter=1&filter_location_address%5Btext%5D=Current%20Map%20View&filter_location_address%5Bviewport%5D=51.32326959635218%2C-11.245623958125014%2C52.08916363292999%2C-7.729998958125015&filter_location_address%5Bzoom%5D=9&sort=post_published,
Douglas Meals On Wheels, T12 C840,51.87458612,-8.437473954,Douglas Community Centre Church Road, Douglas, Cork, Ireland,021 4362289,https://mealsonwheelsnetwork.ie/directory-meals_on_wheels/?filter_address%5Btext%5D=Current%20Map%20View&filter_address%5Bviewport%5D=51.32326959635218%2C-11.245623958125014%2C52.08916363292999%2C-7.729998958125015&filter_address%5Bzoom%5D=9&filter=1&filter_location_address%5Btext%5D=Current%20Map%20View&filter_location_address%5Bviewport%5D=51.32326959635218%2C-11.245623958125014%2C52.08916363292999%2C-7.729998958125015&filter_location_address%5Bzoom%5D=9&sort=post_published,
Blackrock / Mahon Meals On Wheels, T12 A020,51.89726427,-8.416774669,Convent Road ,, Cork, Ireland,021 4291603,https://mealsonwheelsnetwork.ie/directory-meals_on_wheels/?filter_address%5Btext%5D=Current%20Map%20View&filter_address%5Bviewport%5D=51.32326959635218%2C-11.245623958125014%2C52.08916363292999%2C-7.729998958125015&filter_address%5Bzoom%5D=9&filter=1&filter_location_address%5Btext%5D=Current%20Map%20View&filter_location_address%5Bviewport%5D=51.32326959635218%2C-11.245623958125014%2C52.08916363292999%2C-7.729998958125015&filter_location_address%5Bzoom%5D=9&sort=post_published,
Bantry Care For The Aged Association Company Ltd, P75 YY93,51.67801062,-9.446536154,1 Ard Mhuire Hospital Road, Bantry, Cork, Ireland,085 730 0454,https://mealsonwheelsnetwork.ie/directory-meals_on_wheels/?filter_address%5Btext%5D=Current%20Map%20View&filter_address%5Bviewport%5D=51.32326959635218%2C-11.245623958125014%2C52.08916363292999%2C-7.729998958125015&filter_address%5Bzoom%5D=9&filter=1&filter_location_address%5Btext%5D=Current%20Map%20View&filter_location_address%5Bviewport%5D=51.32326959635218%2C-11.245623958125014%2C52.08916363292999%2C-7.729998958125015&filter_location_address%5Bzoom%5D=9&sort=post_published,
McAuley Day Care Centre Meals on Wheels Service, P56 TX68,52.35676324,-8.685475923,Main Street , Charville, Cork, Ireland,087 7691605,https://mealsonwheelsnetwork.ie/directory-meals_on_wheels/?filter_address%5Btext%5D=Current%20Map%20View&filter_address%5Bviewport%5D=51.32326959635218%2C-11.245623958125014%2C52.08916363292999%2C-7.729998958125015&filter_address%5Bzoom%5D=9&filter=1&filter_location_address%5Btext%5D=Current%20Map%20View&filter_location_address%5Bviewport%5D=51.32326959635218%2C-11.245623958125014%2C52.08916363292999%2C-7.729998958125015&filter_location_address%5Bzoom%5D=9&sort=post_published,
Cobh Meals On Wheels, P24 YD88,51.85431083,-8.298517884,The Park Road Day Care Centre Park Road, Cobh, Cork, Ireland,021 4816054,https://mealsonwheelsnetwork.ie/directory-meals_on_wheels/?filter_address%5Btext%5D=Current%20Map%20View&filter_address%5Bviewport%5D=51.32326959635218%2C-11.245623958125014%2C52.08916363292999%2C-7.729998958125015&filter_address%5Bzoom%5D=9&filter=1&filter_location_address%5Btext%5D=Current%20Map%20View&filter_location_address%5Bviewport%5D=51.32326959635218%2C-11.245623958125014%2C52.08916363292999%2C-7.729998958125015&filter_location_address%5Bzoom%5D=9&sort=post_published,
Blarney Care of the Aged, ,,,The Convent , Blarney, Cork, Ireland,087 7372706,https://mealsonwheelsnetwork.ie/directory-meals_on_wheels/?filter_address%5Btext%5D=Current%20Map%20View&filter_address%5Bviewport%5D=51.32326959635218%2C-11.245623958125014%2C52.08916363292999%2C-7.729998958125015&filter_address%5Bzoom%5D=9&filter=1&filter_location_address%5Btext%5D=Current%20Map%20View&filter_location_address%5Bviewport%5D=51.32326959635218%2C-11.245623958125014%2C52.08916363292999%2C-7.729998958125015&filter_location_address%5Bzoom%5D=9&sort=post_published,
Kinsale Meals On Wheels,,,,Kinsale , Kinsale, Cork , Ireland,087 1509996,https://mealsonwheelsnetwork.ie/directory-meals_on_wheels/?filter_address%5Btext%5D=Current%20Map%20View&filter_address%5Bviewport%5D=51.32326959635218%2C-11.245623958125014%2C52.08916363292999%2C-7.729998958125015&filter_address%5Bzoom%5D=9&filter=1&filter_location_address%5Btext%5D=Current%20Map%20View&filter_location_address%5Bviewport%5D=51.32326959635218%2C-11.245623958125014%2C52.08916363292999%2C-7.729998958125015&filter_location_address%5Bzoom%5D=9&sort=post_published,
